start=new Date('2022-04-04T00:00:00.000Z').valueOf();
sats=[{"COUNTRY_CODE":"US","MEAN_MOTION_DDOT":"0.0000000000000","MEAN_ANOMALY":"308.0722","PERIOD":"95.593","OBJECT_NAME":"STARLINK-2746","CLASSIFICATION_TYPE":"U","ARG_OF_PERICENTER":"52.0427","BSTAR":"0.00001179900000","ECCENTRICITY":"0.00017710","SITE":"AFETR","REV_AT_EPOCH":"4740","SEMIMAJOR_AXIS":"6925.371","FILE":"3386965","CENTER_NAME":"EARTH","OBJECT_TYPE":"PAYLOAD","EPHEMERIS_TYPE":"0","APOAPSIS":"548.463","NORAD_CAT_ID":"48676","GP_ID":"200381645","RA_OF_ASC_NODE":"78.2069","REF_FRAME":"TEME","TIME_SYSTEM":"UTC","RCS_SIZE":"LARGE","EPOCH":"2022-04-03T15:51:23.786208","LAUNCH_DATE":"2021-05-26","TLE_LINE2":"2 48676  53.0553  78.2069 0001771  52.0427 308.0722 15.06392584 47402","INCLINATION":"53.0553","PERIAPSIS":"546.010","MEAN_ELEMENT_THEORY":"SGP4","MEAN_MOTION":"15.06392584","ELEMENT_SET_NO":"999","DECAY_DATE":null,"OBJECT_ID":"2021-044AQ","MEAN_MOTION_DOT":"-0.00000106","TLE_LINE1":"1 48676U 21044AQ  22093.66069197 -.00000106  00000-0  11799-4 0  9991"},{"ECCENTRICITY":"0.00014300","BSTAR":"-0.00011064000000","SEMIMAJOR_AXIS":"6925.378","SITE":"AFETR","REV_AT_EPOCH":"4740","PERIOD":"95.593","MEAN_ANOMALY":"295.8967","OBJECT_NAME":"STARLINK-2719","COUNTRY_CODE":"US","MEAN_MOTION_DDOT":"0.0000000000000","CLASSIFICATION_TYPE":"U","ARG_OF_PERICENTER":"64.2169","ELEMENT_SET_NO":"999","DECAY_DATE":null,"PERIAPSIS":"546.252","MEAN_ELEMENT_THEORY":"SGP4","MEAN_MOTION":"15.06390500","EPOCH":"2022-04-03T15:46:06.010464","TLE_LINE2":"2 48677  53.0562  78.2176 0001430  64.2169 295.8967 15.06390500 47402","INCLINATION":"53.0562","LAUNCH_DATE":"2021-05-26","TLE_LINE1":"1 48677U 21044AR  22093.65701401 -.00001929  00000-0 -11064-3 0  9991","OBJECT_ID":"2021-044AR","MEAN_MOTION_DOT":"-0.00001929","OBJECT_TYPE":"PAYLOAD","CENTER_NAME":"EARTH","FILE":"3386965","RCS_SIZE":"LARGE","RA_OF_ASC_NODE":"78.2176","GP_ID":"200380393","REF_FRAME":"TEME","TIME_SYSTEM":"UTC","EPHEMERIS_TYPE":"0","NORAD_CAT_ID":"48677","APOAPSIS":"548.233"},{"SITE":"AFETR","REV_AT_EPOCH":"4740","SEMIMAJOR_AXIS":"6925.373","BSTAR":"0.00003202700000","ECCENTRICITY":"0.00015890","CLASSIFICATION_TYPE":"U","ARG_OF_PERICENTER":"58.6830","COUNTRY_CODE":"US","MEAN_MOTION_DDOT":"0.0000000000000","MEAN_ANOMALY":"301.4314","PERIOD":"95.593","OBJECT_NAME":"STARLINK-2615","OBJECT_ID":"2021-044AS","MEAN_MOTION_DOT":"0.00000195","TLE_LINE1":"1 48678U 21044AS  22093.65331819  .00000195  00000-0  32027-4 0  9999","EPOCH":"2022-04-03T15:40:46.691616","TLE_LINE2":"2 48678  53.0540  78.2372 0001589  58.6830 301.4314 15.06392162 47400","INCLINATION":"53.0540","LAUNCH_DATE":"2021-05-26","MEAN_ELEMENT_THEORY":"SGP4","PERIAPSIS":"546.137","MEAN_MOTION":"15.06392162","ELEMENT_SET_NO":"999","DECAY_DATE":null,"EPHEMERIS_TYPE":"0","NORAD_CAT_ID":"48678","APOAPSIS":"548.338","REF_FRAME":"TEME","GP_ID":"200380643","RA_OF_ASC_NODE":"78.2372","TIME_SYSTEM":"UTC","RCS_SIZE":"LARGE","FILE":"3386965","OBJECT_TYPE":"PAYLOAD","CENTER_NAME":"EARTH"},{"ARG_OF_PERICENTER":"59.9088","CLASSIFICATION_TYPE":"U","OBJECT_NAME":"STARLINK-2648","PERIOD":"95.592","MEAN_ANOMALY":"300.2063","MEAN_MOTION_DDOT":"0.0000000000000","COUNTRY_CODE":"US","SEMIMAJOR_AXIS":"6925.362","SITE":"AFETR","REV_AT_EPOCH":"4740","ECCENTRICITY":"0.00016360","BSTAR":"-0.00008821700000","RCS_SIZE":"LARGE","TIME_SYSTEM":"UTC","GP_ID":"200381395","REF_FRAME":"TEME","RA_OF_ASC_NODE":"78.2586","NORAD_CAT_ID":"48679","APOAPSIS":"548.360","EPHEMERIS_TYPE":"0","CENTER_NAME":"EARTH","OBJECT_TYPE":"PAYLOAD","FILE":"3386965","TLE_LINE1":"1 48679U 21044AT  22093.64963512 -.00001595  00000-0 -88217-4 0  9999","MEAN_MOTION_DOT":"-0.00001595","OBJECT_ID":"2021-044AT","ELEMENT_SET_NO":"999","DECAY_DATE":null,"PERIAPSIS":"546.094","MEAN_ELEMENT_THEORY":"SGP4","MEAN_MOTION":"15.06395737","INCLINATION":"53.0552","TLE_LINE2":"2 48679  53.0552  78.2586 0001636  59.9088 300.2063 15.06395737 47402","LAUNCH_DATE":"2021-05-26","EPOCH":"2022-04-03T15:35:28.474368"},{"TLE_LINE2":"2 48680  53.0554  78.2698 0001580  50.9965 309.1165 15.06386595 47406","INCLINATION":"53.0554","LAUNCH_DATE":"2021-05-26","EPOCH":"2022-04-03T15:30:09.345600","PERIAPSIS":"546.160","MEAN_MOTION":"15.06386595","MEAN_ELEMENT_THEORY":"SGP4","DECAY_DATE":null,"ELEMENT_SET_NO":"999","MEAN_MOTION_DOT":"-0.00003406","OBJECT_ID":"2021-044AU","TLE_LINE1":"1 48680U 21044AU  22093.64594150 -.00003406  00000-0 -20994-3 0  9999","FILE":"3386965","CENTER_NAME":"EARTH","OBJECT_TYPE":"PAYLOAD","NORAD_CAT_ID":"48680","APOAPSIS":"548.349","EPHEMERIS_TYPE":"0","TIME_SYSTEM":"UTC","RA_OF_ASC_NODE":"78.2698","GP_ID":"200381146","REF_FRAME":"TEME","RCS_SIZE":"LARGE","BSTAR":"-0.00020994000000","ECCENTRICITY":"0.00015800","SITE":"AFETR","REV_AT_EPOCH":"4740","SEMIMAJOR_AXIS":"6925.390","MEAN_MOTION_DDOT":"0.0000000000000","COUNTRY_CODE":"US","OBJECT_NAME":"STARLINK-2649","MEAN_ANOMALY":"309.1165","PERIOD":"95.593","ARG_OF_PERICENTER":"50.9965","CLASSIFICATION_TYPE":"U"},{"CENTER_NAME":"EARTH","OBJECT_TYPE":"PAYLOAD","FILE":"3386965","GP_ID":"200379894","REF_FRAME":"TEME","RA_OF_ASC_NODE":"47.0437","TIME_SYSTEM":"UTC","RCS_SIZE":"LARGE","EPHEMERIS_TYPE":"0","APOAPSIS":"548.384","NORAD_CAT_ID":"48681","DECAY_DATE":null,"ELEMENT_SET_NO":"999","EPOCH":"2022-04-03T22:00:00.999936","LAUNCH_DATE":"2021-05-26","TLE_LINE2":"2 48681  53.0545  47.0437 0001595  77.3896  81.7988 15.06378522  3593","INCLINATION":"53.0545","MEAN_ELEMENT_THEORY":"SGP4","PERIAPSIS":"546.175","MEAN_MOTION":"15.06378522","TLE_LINE1":"1 48681U 21044AV  22093.91667824 -.00011599  00000-0 -76151-3 0  9997","OBJECT_ID":"2021-044AV","MEAN_MOTION_DOT":"-0.00011599","MEAN_ANOMALY":"81.7988","PERIOD":"95.594","OBJECT_NAME":"STARLINK-2725","COUNTRY_CODE":"US","MEAN_MOTION_DDOT":"0.0000000000000","CLASSIFICATION_TYPE":"U","ARG_OF_PERICENTER":"77.3896","ECCENTRICITY":"0.00015950","BSTAR":"-0.00076151000000","SEMIMAJOR_AXIS":"6925.414","SITE":"AFETR","REV_AT_EPOCH":"359"},{"PERIAPSIS":"546.190","MEAN_ELEMENT_THEORY":"SGP4","MEAN_MOTION":"15.06377087","EPOCH":"2022-04-03T22:00:00.999936","TLE_LINE2":"2 48682  53.0566  37.0490 0001579  63.2077  70.9782 15.06377087  3599","LAUNCH_DATE":"2021-05-26","INCLINATION":"53.0566","ELEMENT_SET_NO":"999","DECAY_DATE":null,"OBJECT_ID":"2021-044AW","MEAN_MOTION_DOT":"-0.00017366","TLE_LINE1":"1 48682U 21044AW  22093.91667824 -.00017366  00000-0 -11505-2 0  9997","FILE":"3386965","CENTER_NAME":"EARTH","OBJECT_TYPE":"PAYLOAD","EPHEMERIS_TYPE":"0","NORAD_CAT_ID":"48682","APOAPSIS":"548.377","RCS_SIZE":"LARGE","REF_FRAME":"TEME","GP_ID":"200380144","RA_OF_ASC_NODE":"37.0490","TIME_SYSTEM":"UTC","BSTAR":"-0.00115050000000","ECCENTRICITY":"0.00015790","SITE":"AFETR","REV_AT_EPOCH":"359","SEMIMAJOR_AXIS":"6925.419","COUNTRY_CODE":"US","MEAN_MOTION_DDOT":"0.0000000000000","MEAN_ANOMALY":"70.9782","PERIOD":"95.594","OBJECT_NAME":"STARLINK-2743","CLASSIFICATION_TYPE":"U","ARG_OF_PERICENTER":"63.2077"},{"SEMIMAJOR_AXIS":"6925.403","REV_AT_EPOCH":"358","SITE":"AFETR","ECCENTRICITY":"0.00015530","BSTAR":"-0.00107090000000","CLASSIFICATION_TYPE":"U","ARG_OF_PERICENTER":"71.3965","MEAN_ANOMALY":"222.7929","PERIOD":"95.593","OBJECT_NAME":"STARLINK-2756","COUNTRY_CODE":"US","MEAN_MOTION_DDOT":"0.0000000000000","TLE_LINE1":"1 48683U 21044AX  22093.91667824 -.00016189  00000-0 -10709-2 0  9995","OBJECT_ID":"2021-044AX","MEAN_MOTION_DOT":"-0.00016189","DECAY_DATE":null,"ELEMENT_SET_NO":"999","EPOCH":"2022-04-03T22:00:00.999936","TLE_LINE2":"2 48683  53.0564  37.0634 0001553  71.3965 222.7929 15.06382133  3583","LAUNCH_DATE":"2021-05-26","INCLINATION":"53.0564","MEAN_ELEMENT_THEORY":"SGP4","PERIAPSIS":"546.193","MEAN_MOTION":"15.06382133","REF_FRAME":"TEME","GP_ID":"200380896","RA_OF_ASC_NODE":"37.0634","TIME_SYSTEM":"UTC","RCS_SIZE":"LARGE","EPHEMERIS_TYPE":"0","APOAPSIS":"548.344","NORAD_CAT_ID":"48683","OBJECT_TYPE":"PAYLOAD","CENTER_NAME":"EARTH","FILE":"3386965"},{"PERIOD":"95.593","MEAN_ANOMALY":"300.8167","OBJECT_NAME":"STARLINK-2741","COUNTRY_CODE":"US","MEAN_MOTION_DDOT":"0.0000000000000","CLASSIFICATION_TYPE":"U","ARG_OF_PERICENTER":"59.2986","ECCENTRICITY":"0.00016640","BSTAR":"-0.00010167000000","SEMIMAJOR_AXIS":"6925.414","REV_AT_EPOCH":"4779","SITE":"AFETR","OBJECT_TYPE":"PAYLOAD","CENTER_NAME":"EARTH","FILE":"3386965","RCS_SIZE":"LARGE","GP_ID":"200381646","RA_OF_ASC_NODE":"52.0555","REF_FRAME":"TEME","TIME_SYSTEM":"UTC","EPHEMERIS_TYPE":"0","APOAPSIS":"548.431","NORAD_CAT_ID":"48684","ELEMENT_SET_NO":"999","DECAY_DATE":null,"MEAN_ELEMENT_THEORY":"SGP4","PERIAPSIS":"546.127","MEAN_MOTION":"15.06378671","EPOCH":"2022-04-03T22:02:15.256032","TLE_LINE2":"2 48684  53.0564  52.0555 0001664  59.2986 300.8167 15.06378671 47799","INCLINATION":"53.0564","LAUNCH_DATE":"2021-05-26","TLE_LINE1":"1 48684U 21044AY  22093.91823213 -.00001795  00000-0 -10167-3 0  9998","OBJECT_ID":"2021-044AY","MEAN_MOTION_DOT":"-0.00001795"},{"ELEMENT_SET_NO":"999","DECAY_DATE":null,"PERIAPSIS":"546.233","MEAN_ELEMENT_THEORY":"SGP4","MEAN_MOTION":"15.06376708","TLE_LINE2":"2 48685  53.0561  37.0459 0001519  85.2879  28.9325 15.06376708  3595","INCLINATION":"53.0561","LAUNCH_DATE":"2021-05-26","EPOCH":"2022-04-03T22:00:00.999936","TLE_LINE1":"1 48685U 21044AZ  22093.91667824 -.00025730  00000-0 -17158-2 0  9994","MEAN_MOTION_DOT":"-0.00025730","OBJECT_ID":"2021-044AZ","OBJECT_TYPE":"PAYLOAD","CENTER_NAME":"EARTH","FILE":"3386965","RCS_SIZE":"LARGE","TIME_SYSTEM":"UTC","RA_OF_ASC_NODE":"37.0459","GP_ID":"200380394","REF_FRAME":"TEME","NORAD_CAT_ID":"48685","APOAPSIS":"548.337","EPHEMERIS_TYPE":"0","ECCENTRICITY":"0.00015190","BSTAR":"-0.00171580000000","SEMIMAJOR_AXIS":"6925.420","SITE":"AFETR","REV_AT_EPOCH":"359","OBJECT_NAME":"STARLINK-2751","MEAN_ANOMALY":"28.9325","PERIOD":"95.594","MEAN_MOTION_DDOT":"0.0000000000000","COUNTRY_CODE":"US","ARG_OF_PERICENTER":"85.2879","CLASSIFICATION_TYPE":"U"}];
